[{"OBJECT_NAME":"STARLINK-35430","OBJECT_ID":"2025-232R","EPOCH":"2026-03-09T22:22:58.830240","MEAN_MOTION":15.30205842,"ECCENTRICITY":0.00016231,"INCLINATION":53.1586,"RA_OF_ASC_NODE":102.7167,"ARG_OF_PERICENTER":87.7013,"MEAN_ANOMALY":272.4173,"EPHEMERIS_TYPE":0,"CLASSIFICATION_TYPE":"U","NORAD_CAT_ID":66020,"ELEMENT_SET_NO":999,"REV_AT_EPOCH":2345,"BSTAR":0.00073811173,"MEAN_MOTION_DOT":0.00021569,"MEAN_MOTION_DDOT":0},{"OBJECT_NAME":"CERISE","OBJECT_ID":"1995-033B","EPOCH":"2026-03-09T23:11:27.589056","MEAN_MOTION":15.32047731,"ECCENTRICITY":0.00057118,"INCLINATION":98.325,"RA_OF_ASC_NODE":273.5192,"ARG_OF_PERICENTER":211.8754,"MEAN_ANOMALY":148.214,"EPHEMERIS_TYPE":0,"CLASSIFICATION_TYPE":"U","NORAD_CAT_ID":23606,"ELEMENT_SET_NO":999,"REV_AT_EPOCH":66468,"BSTAR":0.00062940675,"MEAN_MOTION_DOT":0.00019422,"MEAN_MOTION_DDOT":0}]
